CCSDS_OMM_VERS = 2.0
CREATION_DATE  = 
ORIGINATOR     = 

OBJECT_NAME    = STARLINK-36460
OBJECT_ID      = 2026-005AE
CENTER_NAME    = EARTH
REF_FRAME      = TEME
TIME_SYSTEM    = UTC
MEAN_ELEMENT_THEORY = SGP/SGP4

EPOCH          = 2026-01-27T22:00:01.999584
MEAN_MOTION    = 15.71072463
ECCENTRICITY   = .00014412
INCLINATION    = 43.0003
RA_OF_ASC_NODE = 113.0324
ARG_OF_PERICENTER = 282.5832
MEAN_ANOMALY   = 149.9028

EPHEMERIS_TYPE = 0
CLASSIFICATION_TYPE = U
NORAD_CAT_ID   = 67432
ELEMENT_SET_NO = 999
REV_AT_EPOCH   = 363
BSTAR          = -.17462974E-1
MEAN_MOTION_DOT = -.19964E-1
MEAN_MOTION_DDOT = 0

CCSDS_OMM_VERS = 2.0
CREATION_DATE  = 
ORIGINATOR     = 

OBJECT_NAME    = YAOGAN-50 01
OBJECT_ID      = 2026-006A
CENTER_NAME    = EARTH
REF_FRAME      = TEME
TIME_SYSTEM    = UTC
MEAN_ELEMENT_THEORY = SGP/SGP4

EPOCH          = 2026-01-27T19:59:54.432960
MEAN_MOTION    = 13.83251430
ECCENTRICITY   = .00006801
INCLINATION    = 142.0309
RA_OF_ASC_NODE = 257.5117
ARG_OF_PERICENTER = 270.9336
MEAN_ANOMALY   = 89.1305

EPHEMERIS_TYPE = 0
CLASSIFICATION_TYPE = U
NORAD_CAT_ID   = 67433
ELEMENT_SET_NO = 999
REV_AT_EPOCH   = 199
BSTAR          = .18842654E-3
MEAN_MOTION_DOT = .397E-5
MEAN_MOTION_DDOT = 0

CCSDS_OMM_VERS = 2.0
CREATION_DATE  = 
ORIGINATOR     = 

OBJECT_NAME    = CZ-6A R/B
OBJECT_ID      = 2026-006B
CENTER_NAME    = EARTH
REF_FRAME      = TEME
TIME_SYSTEM    = UTC
MEAN_ELEMENT_THEORY = SGP/SGP4

EPOCH          = 2026-01-27T12:17:02.044608
MEAN_MOTION    = 14.62277849
ECCENTRICITY   = .02026643
INCLINATION    = 142.0434
RA_OF_ASC_NODE = 264.1056
ARG_OF_PERICENTER = 183.8814
MEAN_ANOMALY   = 176.0331

EPHEMERIS_TYPE = 0
CLASSIFICATION_TYPE = U
NORAD_CAT_ID   = 67434
ELEMENT_SET_NO = 999
REV_AT_EPOCH   = 204
BSTAR          = .21439517E-3
MEAN_MOTION_DOT = .1803E-4
MEAN_MOTION_DDOT = 0

CCSDS_OMM_VERS = 2.0
CREATION_DATE  = 
ORIGINATOR     = 

OBJECT_NAME    = HULIANWANG DIGUI-137
OBJECT_ID      = 2026-007A
CENTER_NAME    = EARTH
REF_FRAME      = TEME
TIME_SYSTEM    = UTC
MEAN_ELEMENT_THEORY = SGP/SGP4

EPOCH          = 2026-01-27T20:14:14.119872
MEAN_MOTION    = 13.87061739
ECCENTRICITY   = .0000088
INCLINATION    = 50.0075
RA_OF_ASC_NODE = 237.8914
ARG_OF_PERICENTER = 283.0119
MEAN_ANOMALY   = 77.0769

EPHEMERIS_TYPE = 0
CLASSIFICATION_TYPE = U
NORAD_CAT_ID   = 67435
ELEMENT_SET_NO = 999
REV_AT_EPOCH   = 198
BSTAR          = .18825298E-3
MEAN_MOTION_DOT = .77E-6
MEAN_MOTION_DDOT = 0

CCSDS_OMM_VERS = 2.0
CREATION_DATE  = 
ORIGINATOR     = 

OBJECT_NAME    = HULIANWANG DIGUI-138
OBJECT_ID      = 2026-007B
CENTER_NAME    = EARTH
REF_FRAME      = TEME
TIME_SYSTEM    = UTC
MEAN_ELEMENT_THEORY = SGP/SGP4

EPOCH          = 2026-01-26T21:49:28.046496
MEAN_MOTION    = 13.87023419
ECCENTRICITY   = .00004444
INCLINATION    = 50.0062
RA_OF_ASC_NODE = 241.6072
ARG_OF_PERICENTER = 254.4135
MEAN_ANOMALY   = 105.6713

EPHEMERIS_TYPE = 0
CLASSIFICATION_TYPE = U
NORAD_CAT_ID   = 67436
ELEMENT_SET_NO = 999
REV_AT_EPOCH   = 185
BSTAR          = .19714533E-3
MEAN_MOTION_DOT = .87E-6
MEAN_MOTION_DDOT = 0

CCSDS_OMM_VERS = 2.0
CREATION_DATE  = 
ORIGINATOR     = 

OBJECT_NAME    = HULIANWANG DIGUI-139
OBJECT_ID      = 2026-007C
CENTER_NAME    = EARTH
REF_FRAME      = TEME
TIME_SYSTEM    = UTC
MEAN_ELEMENT_THEORY = SGP/SGP4

EPOCH          = 2026-01-27T21:59:40.192224
MEAN_MOTION    = 13.86975415
ECCENTRICITY   = .00002468
INCLINATION    = 50.0019
RA_OF_ASC_NODE = 237.6021
ARG_OF_PERICENTER = 297.4085
MEAN_ANOMALY   = 62.6788

EPHEMERIS_TYPE = 0
CLASSIFICATION_TYPE = U
NORAD_CAT_ID   = 67437
ELEMENT_SET_NO = 999
REV_AT_EPOCH   = 199
BSTAR          = .21846441E-3
MEAN_MOTION_DOT = .112E-5
MEAN_MOTION_DDOT = 0

CCSDS_OMM_VERS = 2.0
CREATION_DATE  = 
ORIGINATOR     = 

OBJECT_NAME    = HULIANWANG DIGUI-140
OBJECT_ID      = 2026-007D
CENTER_NAME    = EARTH
REF_FRAME      = TEME
TIME_SYSTEM    = UTC
MEAN_ELEMENT_THEORY = SGP/SGP4

EPOCH          = 2026-01-27T20:21:05.571360
MEAN_MOTION    = 13.86422151
ECCENTRICITY   = .00001734
INCLINATION    = 50.0045
RA_OF_ASC_NODE = 237.9110
ARG_OF_PERICENTER = 289.8988
MEAN_ANOMALY   = 70.1890

EPHEMERIS_TYPE = 0
CLASSIFICATION_TYPE = U
NORAD_CAT_ID   = 67438
ELEMENT_SET_NO = 999
REV_AT_EPOCH   = 198
BSTAR          = .21075747E-3
MEAN_MOTION_DOT = .101E-5
MEAN_MOTION_DDOT = 0

CCSDS_OMM_VERS = 2.0
CREATION_DATE  = 
ORIGINATOR     = 

OBJECT_NAME    = HULIANWANG DIGUI-141
OBJECT_ID      = 2026-007E
CENTER_NAME    = EARTH
REF_FRAME      = TEME
TIME_SYSTEM    = UTC
MEAN_ELEMENT_THEORY = SGP/SGP4

EPOCH          = 2026-01-27T20:11:21.657696
MEAN_MOTION    = 13.87463259
ECCENTRICITY   = .0000113
INCLINATION    = 50.0030
RA_OF_ASC_NODE = 237.8735
ARG_OF_PERICENTER = 260.4973
MEAN_ANOMALY   = 99.5911

EPHEMERIS_TYPE = 0
CLASSIFICATION_TYPE = U
NORAD_CAT_ID   = 67439
ELEMENT_SET_NO = 999
REV_AT_EPOCH   = 198
BSTAR          = .18984802E-3
MEAN_MOTION_DOT = .8E-6
MEAN_MOTION_DDOT = 0

CCSDS_OMM_VERS = 2.0
CREATION_DATE  = 
ORIGINATOR     = 

OBJECT_NAME    = HULIANWANG DIGUI-142
OBJECT_ID      = 2026-007F
CENTER_NAME    = EARTH
REF_FRAME      = TEME
TIME_SYSTEM    = UTC
MEAN_ELEMENT_THEORY = SGP/SGP4

EPOCH          = 2026-01-27T13:13:31.914912
MEAN_MOTION    = 13.88085104
ECCENTRICITY   = .0000101
INCLINATION    = 50.0109
RA_OF_ASC_NODE = 239.0196
ARG_OF_PERICENTER = 292.8460
MEAN_ANOMALY   = 67.2427

EPHEMERIS_TYPE = 0
CLASSIFICATION_TYPE = U
NORAD_CAT_ID   = 67440
ELEMENT_SET_NO = 999
REV_AT_EPOCH   = 194
BSTAR          = .3062E-4
MEAN_MOTION_DOT = -.109E-5
MEAN_MOTION_DDOT = 0

CCSDS_OMM_VERS = 2.0
CREATION_DATE  = 
ORIGINATOR     = 

OBJECT_NAME    = HULIANWANG DIGUI-143
OBJECT_ID      = 2026-007G
CENTER_NAME    = EARTH
REF_FRAME      = TEME
TIME_SYSTEM    = UTC
MEAN_ELEMENT_THEORY = SGP/SGP4

EPOCH          = 2026-01-27T21:49:37.490016
MEAN_MOTION    = 13.88061052
ECCENTRICITY   = .00002565
INCLINATION    = 50.0088
RA_OF_ASC_NODE = 237.5794
ARG_OF_PERICENTER = 298.9623
MEAN_ANOMALY   = 61.1249

EPHEMERIS_TYPE = 0
CLASSIFICATION_TYPE = U
NORAD_CAT_ID   = 67441
ELEMENT_SET_NO = 999
REV_AT_EPOCH   = 199
BSTAR          = .18782647E-3
MEAN_MOTION_DOT = .8E-6
MEAN_MOTION_DDOT = 0

CCSDS_OMM_VERS = 2.0
CREATION_DATE  = 
ORIGINATOR     = 

OBJECT_NAME    = HULIANWANG DIGUI-144
OBJECT_ID      = 2026-007H
CENTER_NAME    = EARTH
REF_FRAME      = TEME
TIME_SYSTEM    = UTC
MEAN_ELEMENT_THEORY = SGP/SGP4

EPOCH          = 2026-01-27T14:52:30.151488
MEAN_MOTION    = 13.88287641
ECCENTRICITY   = .00001652
INCLINATION    = 50.0102
RA_OF_ASC_NODE = 238.7124
ARG_OF_PERICENTER = 247.4245
MEAN_ANOMALY   = 112.6635

EPHEMERIS_TYPE = 0
CLASSIFICATION_TYPE = U
NORAD_CAT_ID   = 67442
ELEMENT_SET_NO = 999
REV_AT_EPOCH   = 195
BSTAR          = .18361455E-3
MEAN_MOTION_DOT = .75E-6
MEAN_MOTION_DDOT = 0

CCSDS_OMM_VERS = 2.0
CREATION_DATE  = 
ORIGINATOR     = 

OBJECT_NAME    = HULIANWANG DIGUI-145
OBJECT_ID      = 2026-007J
CENTER_NAME    = EARTH
REF_FRAME      = TEME
TIME_SYSTEM    = UTC
MEAN_ELEMENT_THEORY = SGP/SGP4

EPOCH          = 2026-01-27T23:27:19.698048
MEAN_MOTION    = 13.88454553
ECCENTRICITY   = .00003914
INCLINATION    = 50.0079
RA_OF_ASC_NODE = 237.2703
ARG_OF_PERICENTER = 313.0521
MEAN_ANOMALY   = 47.0344

EPHEMERIS_TYPE = 0
CLASSIFICATION_TYPE = U
NORAD_CAT_ID   = 67443
ELEMENT_SET_NO = 999
REV_AT_EPOCH   = 200
BSTAR          = .19266761E-3
MEAN_MOTION_DOT = .87E-6
MEAN_MOTION_DDOT = 0

