STARLINK-36460          
1 67432U 26005AE  26027.91668981 -.01996400  00000+0 -17463-1 0  9992
2 67432  43.0003 113.0324 0001441 282.5832 149.9028 15.71072463  3639
YAOGAN-50 01            
1 67433U 26006A   26027.83326890  .00000397  00000+0  18843-3 0  9998
2 67433 142.0309 257.5117 0000680 270.9336  89.1305 13.83251430  1991
CZ-6A R/B               
1 67434U 26006B   26027.51182922  .00001803  00000+0  21440-3 0  9990
2 67434 142.0434 264.1056 0202664 183.8814 176.0331 14.62277849  2048
HULIANWANG DIGUI-137    
1 67435U 26007A   26027.84321898  .00000077  00000+0  18825-3 0  9990
2 67435  50.0075 237.8914 0000088 283.0119  77.0769 13.87061739  1987
HULIANWANG DIGUI-138    
1 67436U 26007B   26026.90935239  .00000087  00000+0  19715-3 0  9997
2 67436  50.0062 241.6072 0000444 254.4135 105.6713 13.87023419  1854
HULIANWANG DIGUI-139    
1 67437U 26007C   26027.91643741  .00000112  00000+0  21846-3 0  9991
2 67437  50.0019 237.6021 0000246 297.4085  62.6788 13.86975415  1997
HULIANWANG DIGUI-140    
1 67438U 26007D   26027.84798115  .00000101  00000+0  21076-3 0  9993
2 67438  50.0045 237.9110 0000173 289.8988  70.1890 13.86422151  1986
HULIANWANG DIGUI-141    
1 67439U 26007E   26027.84122289  .00000080  00000+0  18985-3 0  9998
2 67439  50.0030 237.8735 0000113 260.4973  99.5911 13.87463259  1980
HULIANWANG DIGUI-142    
1 67440U 26007F   26027.55106383 -.00000109  00000+0  30620-4 0  9999
2 67440  50.0109 239.0196 0000101 292.8460  67.2427 13.88085104  1941
HULIANWANG DIGUI-143    
1 67441U 26007G   26027.90946169  .00000080  00000+0  18783-3 0  9995
2 67441  50.0088 237.5794 0000256 298.9623  61.1249 13.88061052  1990
HULIANWANG DIGUI-144    
1 67442U 26007H   26027.61979342  .00000075  00000+0  18361-3 0  9999
2 67442  50.0102 238.7124 0000165 247.4245 112.6635 13.88287641  1957
HULIANWANG DIGUI-145    
1 67443U 26007J   26027.97731132  .00000087  00000+0  19267-3 0  9991
2 67443  50.0079 237.2703 0000391 313.0521  47.0344 13.88454553  2009
